{
  "type": "FeatureCollection",
  "features": [
    {
      "type": "Feature",
      "properties": {
        "norad_id": 30389,
        "name": "FENGYUN 1C DEB",
        "group": "fengyun-1c-debris",
        "lat": -70.70381829834005,
        "lon": -145.08267654806318,
        "alt_km": 743.4027912914871,
        "timestamp": "2025-12-06T07:31:40.512996+00:00",
        "meta_object_name": "FENGYUN 1C DEB",
        "meta_object_id": "1999-025ADC",
        "meta_epoch": "2025-12-05T04:01:18.215616",
        "meta_mean_motion": 14.43872308,
        "meta_eccentricity": 0.00137526,
        "meta_inclination": 98.8392,
        "meta_ra_of_asc_node": 60.1155,
        "meta_arg_of_pericenter": 240.9313,
        "meta_mean_anomaly": 177.7911,
        "meta_ephemeris_type": 0,
        "meta_classification_type": "U",
        "meta_norad_cat_id": 30389,
        "meta_element_set_no": 999,
        "meta_rev_at_epoch": 97677,
        "meta_bstar": 0.0051581033,
        "meta_mean_motion_dot": 0.00017601,
        "meta_mean_motion_ddot": 0,
        "tle_line1": "1 30389U 99025ADC 25339.16757194  .00017601  00000+0  51581-2 0  9996",
        "tle_line2": "2 30389  98.8392  60.1155 0013752 240.9313 177.7911 14.43872308976771"
      },
      "geometry": {
        "type": "Point",
        "coordinates": [
          -145.08267654806318,
          -70.70381829834005
        ]
      }
    },
    {
      "type": "Feature",
      "properties": {
        "norad_id": 30390,
        "name": "FENGYUN 1C DEB",
        "group": "fengyun-1c-debris",
        "lat": 63.100261597269565,
        "lon": 45.60754753185364,
        "alt_km": 809.7003754769894,
        "timestamp": "2025-12-06T07:31:40.513006+00:00",
        "meta_object_name": "FENGYUN 1C DEB",
        "meta_object_id": "1999-025ADD",
        "meta_epoch": "2025-12-05T04:38:37.828032",
        "meta_mean_motion": 14.29616933,
        "meta_eccentricity": 0.00681552,
        "meta_inclination": 98.8238,
        "meta_ra_of_asc_node": 62.3024,
        "meta_arg_of_pericenter": 186.1504,
        "meta_mean_anomaly": 237.2026,
        "meta_ephemeris_type": 0,
        "meta_classification_type": "U",
        "meta_norad_cat_id": 30390,
        "meta_element_set_no": 999,
        "meta_rev_at_epoch": 97276,
        "meta_bstar": 0.0039307581,
        "meta_mean_motion_dot": 0.00010289,
        "meta_mean_motion_ddot": 0,
        "tle_line1": "1 30390U 99025ADD 25339.19349338  .00010289  00000+0  39308-2 0  9996",
        "tle_line2": "2 30390  98.8238  62.3024 0068155 186.1504 237.2026 14.29616933972769"
      },
      "geometry": {
        "type": "Point",
        "coordinates": [
          45.60754753185364,
          63.100261597269565
        ]
      }
    },
    {
      "type": "Feature",
      "properties": {
        "norad_id": 30391,
        "name": "FENGYUN 1C DEB",
        "group": "fengyun-1c-debris",
        "lat": -67.78672771070141,
        "lon": 48.649487558029215,
        "alt_km": 794.9148331680826,
        "timestamp": "2025-12-06T07:31:40.513016+00:00",
        "meta_object_name": "FENGYUN 1C DEB",
        "meta_object_id": "1999-025ADE",
        "meta_epoch": "2025-12-05T03:19:32.195712",
        "meta_mean_motion": 14.16185586,
        "meta_eccentricity": 0.00710922,
        "meta_inclination": 98.7816,
        "meta_ra_of_asc_node": 25.2482,
        "meta_arg_of_pericenter": 283.9782,
        "meta_mean_anomaly": 138.7879,
        "meta_ephemeris_type": 0,
        "meta_classification_type": "U",
        "meta_norad_cat_id": 30391,
        "meta_element_set_no": 999,
        "meta_rev_at_epoch": 96771,
        "meta_bstar": 0.0023172068,
        "meta_mean_motion_dot": 4.658e-05,
        "meta_mean_motion_ddot": 0,
        "tle_line1": "1 30391U 99025ADE 25339.13856708  .00004658  00000+0  23172-2 0  9990",
        "tle_line2": "2 30391  98.7816  25.2482 0071092 283.9782 138.7879 14.16185586967716"
      },
      "geometry": {
        "type": "Point",
        "coordinates": [
          48.649487558029215,
          -67.78672771070141
        ]
      }
    },
    {
      "type": "Feature",
      "properties": {
        "norad_id": 30392,
        "name": "FENGYUN 1C DEB",
        "group": "fengyun-1c-debris",
        "lat": 53.72583772382605,
        "lon": -168.76164683945882,
        "alt_km": 906.543909960169,
        "timestamp": "2025-12-06T07:31:40.513026+00:00",
        "meta_object_name": "FENGYUN 1C DEB",
        "meta_object_id": "1999-025ADF",
        "meta_epoch": "2025-12-05T07:21:27.156384",
        "meta_mean_motion": 14.07423283,
        "meta_eccentricity": 0.01814201,
        "meta_inclination": 98.7861,
        "meta_ra_of_asc_node": 358.0929,
        "meta_arg_of_pericenter": 17.8281,
        "meta_mean_anomaly": 45.623,
        "meta_ephemeris_type": 0,
        "meta_classification_type": "U",
        "meta_norad_cat_id": 30392,
        "meta_element_set_no": 999,
        "meta_rev_at_epoch": 96566,
        "meta_bstar": 0.001072716,
        "meta_mean_motion_dot": 2.055e-05,
        "meta_mean_motion_ddot": 0,
        "tle_line1": "1 30392U 99025ADF 25339.30656431  .00002055  00000+0  10727-2 0  9992",
        "tle_line2": "2 30392  98.7861 358.0929 0181420  17.8281  45.6230 14.07423283965663"
      },
      "geometry": {
        "type": "Point",
        "coordinates": [
          -168.76164683945882,
          53.72583772382605
        ]
      }
    },
    {
      "type": "Feature",
      "properties": {
        "norad_id": 30393,
        "name": "FENGYUN 1C DEB",
        "group": "fengyun-1c-debris",
        "lat": 51.05973984932679,
        "lon": 26.575929092027593,
        "alt_km": 927.7153510300086,
        "timestamp": "2025-12-06T07:31:40.513036+00:00",
        "meta_object_name": "FENGYUN 1C DEB",
        "meta_object_id": "1999-025ADG",
        "meta_epoch": "2025-12-05T02:22:58.730304",
        "meta_mean_motion": 13.98974648,
        "meta_eccentricity": 0.00695768,
        "meta_inclination": 99.1647,
        "meta_ra_of_asc_node": 36.8859,
        "meta_arg_of_pericenter": 281.1304,
        "meta_mean_anomaly": 137.7236,
        "meta_ephemeris_type": 0,
        "meta_classification_type": "U",
        "meta_norad_cat_id": 30393,
        "meta_element_set_no": 999,
        "meta_rev_at_epoch": 96223,
        "meta_bstar": 0.00040962537,
        "meta_mean_motion_dot": 5.58e-06,
        "meta_mean_motion_ddot": 0,
        "tle_line1": "1 30393U 99025ADG 25339.09929086  .00000558  00000+0  40963-3 0  9990",
        "tle_line2": "2 30393  99.1647  36.8859 0069576 281.1304 137.7236 13.98974648962237"
      },
      "geometry": {
        "type": "Point",
        "coordinates": [
          26.575929092027593,
          51.05973984932679
        ]
      }
    },
    {
      "type": "Feature",
      "properties": {
        "norad_id": 30394,
        "name": "FENGYUN 1C DEB",
        "group": "fengyun-1c-debris",
        "lat": 79.57385859172699,
        "lon": -106.92588439788992,
        "alt_km": 841.1470732386051,
        "timestamp": "2025-12-06T07:31:40.513047+00:00",
        "meta_object_name": "FENGYUN 1C DEB",
        "meta_object_id": "1999-025ADH",
        "meta_epoch": "2025-12-05T02:08:07.098720",
        "meta_mean_motion": 13.95776697,
        "meta_eccentricity": 0.00899457,
        "meta_inclination": 99.4354,
        "meta_ra_of_asc_node": 7.171,
        "meta_arg_of_pericenter": 121.9599,
        "meta_mean_anomaly": 302.3763,
        "meta_ephemeris_type": 0,
        "meta_classification_type": "U",
        "meta_norad_cat_id": 30394,
        "meta_element_set_no": 999,
        "meta_rev_at_epoch": 95997,
        "meta_bstar": 0.00060787427,
        "meta_mean_motion_dot": 8.12e-06,
        "meta_mean_motion_ddot": 0,
        "tle_line1": "1 30394U 99025ADH 25339.08897105  .00000812  00000+0  60787-3 0  9995",
        "tle_line2": "2 30394  99.4354   7.1710 0089945 121.9599 302.3763 13.95776697959975"
      },
      "geometry": {
        "type": "Point",
        "coordinates": [
          -106.92588439788992,
          79.57385859172699
        ]
      }
    },
    {
      "type": "Feature",
      "properties": {
        "norad_id": 30395,
        "name": "FENGYUN 1C DEB",
        "group": "fengyun-1c-debris",
        "lat": -44.16967896913302,
        "lon": 167.27332717882632,
        "alt_km": 1029.082074998898,
        "timestamp": "2025-12-06T07:31:40.513057+00:00",
        "meta_object_name": "FENGYUN 1C DEB",
        "meta_object_id": "1999-025ADJ",
        "meta_epoch": "2025-12-04T23:46:54.108192",
        "meta_mean_motion": 13.96674747,
        "meta_eccentricity": 0.01608202,
        "meta_inclination": 98.9309,
        "meta_ra_of_asc_node": 354.7753,
        "meta_arg_of_pericenter": 47.4958,
        "meta_mean_anomaly": 10.0661,
        "meta_ephemeris_type": 0,
        "meta_classification_type": "U",
        "meta_norad_cat_id": 30395,
        "meta_element_set_no": 999,
        "meta_rev_at_epoch": 95915,
        "meta_bstar": 0.00093940237,
        "meta_mean_motion_dot": 1.411e-05,
        "meta_mean_motion_ddot": 0,
        "tle_line1": "1 30395U 99025ADJ 25338.99090403  .00001411  00000+0  93940-3 0  9994",
        "tle_line2": "2 30395  98.9309 354.7753 0160820  47.4958  10.0661 13.96674747959155"
      },
      "geometry": {
        "type": "Point",
        "coordinates": [
          167.27332717882632,
          -44.16967896913302
        ]
      }
    }
  ]
}